STARLINK-5491           
1 55332U 23013B   24063.42299998  .00000371  00000+0  42553-4 0  9997
2 55332  43.0058 328.1663 0001059 285.4292  74.6433 15.02537073 61104
STARLINK-5493           
1 55333U 23013C   24064.09972136  .00001728  00000+0  14295-3 0  9992
2 55333  43.0046 337.6669 0001355 272.7396  87.3291 15.02549376 61489
STARLINK-5652           
1 55334U 23013D   24064.07708067  .00000810  00000+0  76497-4 0  9995
2 55334  43.0048 335.7182 0001323 255.4086 104.6609 15.01733124 61504
STARLINK-5660           
1 55335U 23013E   24064.09639726  .00000213  00000+0  30834-4 0  9995
2 55335  43.0032 337.6388 0001363 244.0859 115.9843 15.02537983 61481
STARLINK-5655           
1 55336U 23013F   24064.07776691  .00000571  00000+0  57309-4 0  9990
2 55336  43.0030 324.4011 0001381 230.0539 130.0182 15.02548936 61638
STARLINK-5667           
1 55337U 23013G   24064.07667312 -.00003296  00000+0 -22884-3 0  9998
2 55337  43.0049 324.4387 0001869 255.7844 104.2791 15.02561300 61638
STARLINK-5658           
1 55338U 23013H   24064.09416999  .00006144  00000+0  46926-3 0  9990
2 55338  43.0030 337.6243 0001468 255.1648 104.9032 15.02553910 61483
STARLINK-5671           
1 55339U 23013J   24064.08862586  .00000336  00000+0  39976-4 0  9992
2 55339  43.0036 337.5790 0001214 257.5964 102.4742 15.02539715 61480
STARLINK-5675           
1 55340U 23013K   24064.15288244  .00001539  00000+0  12896-3 0  9992
2 55340  43.0036 337.2025 0001457 270.6807  89.3868 15.02545222 61494
STARLINK-5670           
1 55341U 23013L   24063.82494236  .00000413  00000+0  45676-4 0  9999
2 55341  43.0043 339.0440 0001375 272.6307  87.4378 15.02532515 61014
STARLINK-5657           
1 55342U 23013M   24064.15177313  .00002054  00000+0  16707-3 0  9996
2 55342  43.0029 337.1940 0001364 265.7308  94.3379 15.02545602 61496
STARLINK-5661           
1 55343U 23013N   24064.14621772 -.00018888  00000+0 -13841-2 0  9998
2 55343  43.0035 337.1507 0001647 260.8883  99.1773 15.02610837 61495
STARLINK-5662           
1 55344U 23013P   24064.14843544  .00003317  00000+0  26049-3 0  9996
2 55344  43.0036 337.1695 0001108 276.4265  83.6451 15.02541544 61493
STARLINK-5653           
1 55345U 23013Q   24064.07999612  .00003838  00000+0  29892-3 0  9994
2 55345  43.0037 324.4916 0001238 262.9892  97.0810 15.02552611 61631
STARLINK-5631           
1 55346U 23013R   24064.14288899  .00004583  00000+0  35393-3 0  9992
2 55346  43.0037 337.1283 0001572 271.5700  88.4963 15.02559468 61499
STARLINK-5663           
1 55347U 23013S   24064.13179283  .00002040  00000+0  16600-3 0  9994
2 55347  43.0055 337.0426 0001324 248.1030 111.9671 15.02549854 61495
STARLINK-5609           
1 55348U 23013T   24063.80829316  .00000192  00000+0  29310-4 0  9996
2 55348  43.0040 338.9179 0000724 254.6450 105.4312 15.02537306 61013
STARLINK-5666           
1 55349U 23013U   24063.80496601 -.00001076  00000+0 -64566-4 0  9990
2 55349  43.0014 338.8944 0000997 267.7127  92.3601 15.02543272 61016
STARLINK-5668           
1 55350U 23013V   24064.06752981  .00003503  00000+0  27419-3 0  9997
2 55350  43.0024 337.4219 0001241 283.0042  77.0662 15.02547223 61487
STARLINK-5659           
1 55351U 23013W   24063.45814573 -.00000614  00000+0 -30409-4 0  9992
2 55351  43.0056 340.5884 0000685 287.1454  72.9313 15.02534706 60960
STARLINK-5547           
1 55352U 23013X   24064.12846115  .00007274  00000+0  55277-3 0  9991
2 55352  43.0039 337.0204 0001293 271.0925  88.9769 15.02550222 61492
STARLINK-5608           
1 55353U 23013Y   24063.11132135  .00001016  00000+0  90240-4 0  9998
2 55353  43.0060 342.2891 0001101 277.4168  82.6549 15.02540401 60915
STARLINK-5649           
1 55354U 23013Z   24064.05976639  .00001217  00000+0  10511-3 0  9993
2 55354  43.0022 337.3652 0001143 273.7845  86.2867 15.02542256 61487
STARLINK-5647           
1 55355U 23013AA  24064.11957430  .00001083  00000+0  95206-4 0  9995
2 55355  43.0044 336.9356 0001419 254.2376 105.8310 15.02550753 61490
STARLINK-5651           
1 55357U 23013AC  24064.05089171  .00001052  00000+0  92921-4 0  9995
2 55357  43.0023 337.2959 0000764 293.4737  66.6025 15.02538333 61486
STARLINK-5622           
1 55358U 23013AD  24064.12069313  .00001410  00000+0  11941-3 0  9990
2 55358  43.0030 336.9587 0001327 258.0252 102.0441 15.02544246 61491
STARLINK-5641           
1 55359U 23013AE  24064.11403245  .00002824  00000+0  22396-3 0  9992
2 55359  43.0043 336.9078 0001311 255.8849 104.1848 15.02548852 61492
STARLINK-5664           
1 55360U 23013AF  24064.16360497  .00007898  00000+0  59878-3 0  9991
2 55360  43.0033 349.4100 0001377 268.5462  91.5223 15.02555436 61359
STARLINK-5665           
1 55361U 23013AG  24064.13427020  .00003829  00000+0  29829-3 0  9998
2 55361  43.0031 324.0535 0001197 264.7334  95.3372 15.02541325 61646
STARLINK-5574           
1 55362U 23013AH  24063.87169390  .00000708  00000+0  67462-4 0  9991
2 55362  43.0050 325.5234 0001282 261.4595  98.6102 15.02538067 61172
STARLINK-5648           
1 55363U 23013AJ  24064.14374461  .00004816  00000+0  37133-3 0  9995
2 55363  43.0044 350.1190 0001086 255.1660 104.9062 15.02540579 61342
STARLINK-5627           
1 55364U 23013AK  24064.11180759  .00002339  00000+0  18811-3 0  9998
2 55364  43.0042 336.8914 0001225 272.0887  87.9815 15.02549099 61498
STARLINK-5639           
1 55365U 23013AL  24064.13708143  .00001371  00000+0  11651-3 0  9994
2 55365  43.0048 350.0725 0001193 277.1053  82.9654 15.02548948 61340
STARLINK-5654           
1 55366U 23013AM  24064.07333668  .00001289  00000+0  11045-3 0  9999
2 55366  43.0046 324.4564 0001329 277.1905  82.8786 15.02549006 61635
STARLINK-5635           
1 55367U 23013AN  24064.15758078 -.00000579  00000+0 -27797-4 0  9990
2 55367  43.0036 324.2177 0001195 269.9856  90.0850 15.02537154 61643
STARLINK-5625           
1 55368U 23013AP  24063.73207575 -.00001895  00000+0 -12526-3 0  9990
2 55368  43.0019 326.1955 0001299 262.6674  97.4021 15.02533520 61153
STARLINK-5644           
1 55369U 23013AQ  24063.20528632  .00000041  00000+0  18123-4 0  9993
2 55369  43.0041 355.1206 0001128 271.1400  88.9313 15.02541741 60773
STARLINK-5027           
1 55370U 23013AR  24063.80803192  .00000280  00000+0  35807-4 0  9991
2 55370  43.0045 351.9063 0001168 277.0387  83.0323 15.02540259 60867
STARLINK-5590           
1 55371U 23013AS  24064.12598263  .00002534  00000+0  20251-3 0  9998
2 55371  43.0035 349.9906 0001230 274.6789  85.3913 15.02548003 61348
STARLINK-5568           
1 55372U 23013AT  24064.06616721 -.00000250  00000+0 -34121-5 0  9990
2 55372  43.0042 350.3996 0001163 248.5053 111.5666 15.02541702 61336
STARLINK-5581           
1 55373U 23013AU  24064.15372842  .00000494  00000+0  51659-4 0  9996
2 55373  43.0036 350.1877 0001317 244.3973 115.6733 15.02546881 61346
STARLINK-5578           
1 55374U 23013AV  24063.86340306  .00001974  00000+0  16110-3 0  9990
2 55374  43.0024 351.4565 0001034 260.8070  99.2655 15.02540991 60872
STARLINK-5588           
1 55375U 23013AW  24063.85341864  .00001481  00000+0  12467-3 0  9994
2 55375  43.0016 351.3817 0001015 281.7190  78.3539 15.02535681 60876
STARLINK-5586           
1 55376U 23013AX  24063.76093561  .00000632  00000+0  61836-4 0  9995
2 55376  42.9991 326.4029 0000498 314.6514  45.4287 15.02540086 61157
STARLINK-5567           
1 55377U 23013AY  24064.10600780  .00001365  00000+0  11612-3 0  9992
2 55377  43.0050 349.8389 0001375 270.0150  90.0535 15.02542362 61342
STARLINK-5572           
1 55378U 23013AZ  24064.12265714  .00000775  00000+0  72435-4 0  9994
2 55378  43.0035 349.9639 0001208 272.7681  87.3023 15.02537977 61345
STARLINK-5569           
1 55379U 23013BA  24064.04618525  .00000801  00000+0  74327-4 0  9990
2 55379  43.0035 350.2483 0001193 269.7790  90.2916 15.02541888 61337
STARLINK-5571           
1 55380U 23013BB  24064.05669016  .00016379  00000+0  12238-2 0  9992
2 55380  43.0010 324.3298 0001432 256.8015 103.2668 15.02565051 61631
STARLINK-5575           
1 55381U 23013BC  24064.10933298  .00000512  00000+0  52963-4 0  9998
2 55381  43.0056 349.8622 0001213 260.4078  99.6627 15.02545538 61341
STARLINK-5576           
1 55382U 23013BD  24063.91656646  .00000640  00000+0  62461-4 0  9992
2 55382  43.0041 350.9998 0001272 285.2135  74.8567 15.02536631 61318
STARLINK-5531           
1 55383U 23013BE  24063.78745299 -.00000185  00000+0  14101-5 0  9995
2 55383  43.0037 325.7413 0001601 237.2097 122.8591 15.02534144 61167
STARLINK-5537           
1 55384U 23013BF  24063.84787158  .00000731  00000+0  69189-4 0  9994
2 55384  43.0085 351.3483 0001365 265.8094  94.2592 15.02534795 60876
STARLINK-5556           
1 55385U 23013BG  24064.09934333  .00005960  00000+0  45569-3 0  9996
2 55385  43.0025 349.7874 0001215 260.1251  99.9454 15.02554019 61346
STARLINK-5555           
1 55386U 23013BH  24064.10267214  .00002250  00000+0  18151-3 0  9992
2 55386  43.0044 349.8126 0001356 254.0294 106.0399 15.02549461 61347
STARLINK-5077           
1 55391U 23014A   24064.13180704  .00000440  00000+0  45530-4 0  9991
2 55391  69.9991 118.3489 0003043 263.7120  96.3692 14.97526791 60959
STARLINK-5085           
1 55392U 23014B   24063.54259608  .00001343  00000+0  12027-3 0  9993
2 55392  69.9996 100.4393 0002712 268.6907  91.3942 14.98335954 61347
STARLINK-4786           
1 55393U 23014C   24063.55551775  .00000039  00000+0  11103-4 0  9991
2 55393  69.9998 120.3680 0002876 265.0696  95.0134 14.98325231 61797
STARLINK-5230           
1 55394U 23014D   24064.15216618  .00000733  00000+0  69227-4 0  9994
2 55394  70.0006 118.8266 0002297 244.2975 115.7947 14.98330162 60946
STARLINK-5274           
1 55395U 23014E   24064.16453082  .00000617  00000+0  59491-4 0  9997
2 55395  69.9996 118.8590 0002888 267.1380  92.9449 14.98334968 60943
